{
  "norad_id": 50002,
  "name": "EXPRESS AMU-3",
  "history": [
    {
      "epoch": "2026-03-28T04:45:26.034336",
      "apogee_km": 35787.25767112306,
      "perigee_km": 35785.60482004783,
      "latitude_deg": 0.00755466835792236,
      "longitude_deg": -80.77107295999303,
      "semi_major_axis_km": 42164.56824558545,
      "eccentricity": 1.96e-05,
      "inclination_deg": 0.0171,
      "raan_deg": 229.8195,
      "arg_perigee_deg": 48.5209,
      "mean_anomaly_deg": 81.634,
      "mean_motion_rev_day": 1.00272369
    }
  ]
}